NORAD_CAT_ID,OBJECT_NAME,OBJECT_TYPE,EPOCH,MEAN_MOTION,ECCENTRICITY,INCLINATION,RA_OF_ASC_NODE,ARG_OF_PERICENTER,MEAN_ANOMALY,BSTAR,MEAN_MOTION_DOT,MEAN_MOTION_DDOT,TLE_LINE0,TLE_LINE1,TLE_LINE2,SEMIMAJOR_AXIS,PERIOD,APOGEE,PERIGEE,DECAYED
52574.0,STARLINK-3901,PAYLOAD,2023-10-30 15:23:53,15.08831441,0.0002041,53.2183,24.5137,121.7672,238.3519,-6.4869e-05,-1.32e-05,0.0,0 STARLINK-3901,1 52574U 22051AQ  23303.64159022 -.00001320  00000-0 -64869-4 0  9998,2 52574  53.2183  24.5137 0002041 121.7672 238.3519 15.08831441 81591,6917.907,95.438,541.183,538.36,0.0
52574.0,STARLINK-3901,PAYLOAD,2023-10-31 12:03:54,15.08835759,0.0001608,53.2179,20.6505,87.5431,272.5745,0.00020525,2.98e-05,0.0,0 STARLINK-3901,1 52574U 22051AQ  23304.50271966  .00002980  00000-0  20525-3 0  9997,2 52574  53.2179  20.6505 0001608  87.5431 272.5745 15.08835759 81791,6917.893,95.438,540.871,538.646,0.0
52574.0,STARLINK-3901,PAYLOAD,2023-10-31 21:36:13,15.08838046,0.0001605,53.2183,18.8652,88.4658,271.6518,0.00039815,6.054e-05,0.0,0 STARLINK-3901,1 52574U 22051AQ  23304.90016156  .00006054  00000-0  39815-3 0  9997,2 52574  53.2183  18.8652 0001605  88.4658 271.6518 15.08838046 81785,6917.886,95.438,540.862,538.641,0.0
52574.0,STARLINK-3901,PAYLOAD,2023-11-01 11:54:41,15.08859564,0.0001446,53.2175,16.188,92.3501,267.7657,0.0008186,0.00012771,0.0,0 STARLINK-3901,1 52574U 22051AQ  23305.49631588  .00012771  00000-0  81860-3 0  9994,2 52574  53.2175  16.1880 0001446  92.3501 267.7657 15.08859564 81940,6917.821,95.436,540.686,538.685,0.0
52574.0,STARLINK-3901,PAYLOAD,2023-11-01 21:27:00,15.08854152,0.0001354,53.2179,14.4046,82.5429,277.5717,0.00041423,6.313e-05,0.0,0 STARLINK-3901,1 52574U 22051AQ  23305.89375367  .00006313  00000-0  41423-3 0  9994,2 52574  53.2179  14.4046 0001354  82.5429 277.5717 15.08854152 81930,6917.837,95.437,540.639,538.765,0.0
52574.0,STARLINK-3901,PAYLOAD,2023-11-02 11:45:28,15.08840302,0.000148,53.2173,11.7309,83.5089,276.6072,8.2789e-06,-1.56e-06,0.0,0 STARLINK-3901,1 52574U 22051AQ  23306.48991796 -.00000156  00000-0  82789-5 0  9992,2 52574  53.2173  11.7309 0001480  83.5089 276.6072 15.08840302 82093,6917.879,95.438,540.768,538.721,0.0
52574.0,STARLINK-3901,PAYLOAD,2023-11-02 21:17:47,15.0884066,0.0001562,53.2179,9.948,87.995,272.1221,2.3336e-05,8.3e-07,0.0,0 STARLINK-3901,1 52574U 22051AQ  23306.88735822  .00000083  00000-0  23336-4 0  9992,2 52574  53.2179   9.9480 0001562  87.9950 272.1221 15.08840660 82087,6917.878,95.438,540.824,538.663,0.0
52574.0,STARLINK-3901,PAYLOAD,2023-11-03 13:11:38,15.08850914,0.0001784,53.2179,6.9721,82.2042,277.9153,0.00019925,2.885e-05,0.0,0 STARLINK-3901,1 52574U 22051AQ  23307.54975574  .00002885  00000-0  19925-3 0  9996,2 52574  53.2179   6.9721 0001784  82.2042 277.9153 15.08850914 82189,6917.847,95.437,540.946,538.478,0.0
52574.0,STARLINK-3901,PAYLOAD,2023-11-04 03:30:07,15.0883902,0.0002154,53.218,4.2996,77.7298,282.3935,0.00017551,2.506e-05,0.0,0 STARLINK-3901,1 52574U 22051AQ  23308.14592364  .00002506  00000-0  17551-3 0  9998,2 52574  53.2180   4.2996 0002154  77.7298 282.3935 15.08839020 82341,6917.883,95.438,541.238,538.258,0.0
52574.0,STARLINK-3901,PAYLOAD,2023-11-04 11:27:03,15.08840409,0.0001768,53.2178,2.8116,71.0176,289.1008,0.00021982,3.212e-05,0.0,0 STARLINK-3901,1 52574U 22051AQ  23308.47712407  .00003212  00000-0  21982-3 0  9994,2 52574  53.2178   2.8116 0001768  71.0176 289.1008 15.08840409 82325,6917.879,95.438,540.967,538.521,0.0
52574.0,STARLINK-3901,PAYLOAD,2023-11-04 20:59:22,15.08841594,0.0001719,53.2177,1.0272,76.4118,283.7065,0.00025074,3.705e-05,0.0,0 STARLINK-3901,1 52574U 22051AQ  23308.87456467  .00003705  00000-0  25074-3 0  9992,2 52574  53.2177   1.0272 0001719  76.4118 283.7065 15.08841594 82384,6917.876,95.437,540.93,538.551,0.0
52574.0,STARLINK-3901,PAYLOAD,2023-11-05 09:42:27,15.0885346,0.0001811,53.2176,358.6487,74.3949,285.7243,0.00048806,7.491e-05,0.0,0 STARLINK-3901,1 52574U 22051AQ  23309.40448187  .00007491  00000-0  48806-3 0  9996,2 52574  53.2176 358.6487 0001811  74.3949 285.7243 15.08853460 82536,6917.839,95.437,540.957,538.451,0.0
52574.0,STARLINK-3901,PAYLOAD,2023-11-05 20:50:08,15.08864113,0.0001893,53.2175,356.5685,70.8342,289.2855,0.00079522,0.00012399,0.0,0 STARLINK-3901,1 52574U 22051AQ  23309.86815836  .00012399  00000-0  79522-3 0  9997,2 52574  53.2175 356.5685 0001893  70.8342 289.2855 15.08864113 82535,6917.807,95.436,540.981,538.362,0.0
52574.0,STARLINK-3901,PAYLOAD,2023-11-06 09:33:12,15.08877836,0.0001799,53.2179,354.1862,97.8431,262.2766,0.00090443,0.0001415,0.0,0 STARLINK-3901,1 52574U 22051AQ  23310.39806709  .00014150  00000-0  90443-3 0  9998,2 52574  53.2179 354.1862 0001799  97.8431 262.2766 15.08877836 82610,6917.765,95.435,540.874,538.385,0.0
52574.0,STARLINK-3901,PAYLOAD,2023-11-06 20:40:57,15.08795938,0.0001872,53.2176,352.1063,80.6806,279.4398,-0.0011871,-0.00019109,0.0,0 STARLINK-3901,1 52574U 22051AQ  23310.86177247 -.00019109  00000-0 -11871-2 0  9996,2 52574  53.2176 352.1063 0001872  80.6806 279.4398 15.08795938 82686,6918.015,95.44,541.175,538.585,0.0
52574.0,STARLINK-3901,PAYLOAD,2023-11-07 03:02:30,15.08785272,0.0001944,53.2171,350.9171,80.3173,279.8039,-0.00077877,-0.00012642,0.0,0 STARLINK-3901,1 52574U 22051AQ  23311.12674335 -.00012642  00000-0 -77877-3 0  9990,2 52574  53.2171 350.9171 0001944  80.3173 279.8039 15.08785272 82799,6918.048,95.441,541.258,538.568,0.0
52574.0,STARLINK-3901,PAYLOAD,2023-11-07 09:24:03,15.08813804,0.0001699,53.2185,349.7294,85.402,274.7166,0.0010405,0.00016298,0.0,0 STARLINK-3901,1 52574U 22051AQ  23311.39170710  .00016298  00000-0  10405-2 0  9999,2 52574  53.2185 349.7294 0001699  85.4020 274.7166 15.08813804 82833,6917.96,95.439,541.001,538.65,0.0
52574.0,STARLINK-3901,PAYLOAD,2023-11-07 12:34:49,15.08826093,0.0001576,53.2181,349.1328,88.0975,272.0198,0.00067246,0.00010426,0.0,0 STARLINK-3901,1 52574U 22051AQ  23311.52418522  .00010426  00000-0  67246-3 0  9993,2 52574  53.2181 349.1328 0001576  88.0975 272.0198 15.08826093 82787,6917.923,95.438,540.878,538.698,0.0
52574.0,STARLINK-3901,PAYLOAD,2023-11-08 07:39:27,15.08866513,0.0001053,53.2179,345.5632,99.0649,261.0463,0.0015784,0.0002494,0.0,0 STARLINK-3901,1 52574U 22051AQ  23312.31906466  .00024940  00000-0  15784-2 0  9995,2 52574  53.2179 345.5632 0001053  99.0649 261.0463 15.08866513 82977,6917.799,95.436,540.393,538.936,0.0
52574.0,STARLINK-3901,PAYLOAD,2023-11-08 18:47:08,15.0887236,0.0001641,53.2188,343.4825,97.4151,262.7028,0.00058734,9.08e-05,0.0,0 STARLINK-3901,1 52574U 22051AQ  23312.78273598  .00009080  00000-0  58734-3 0  9990,2 52574  53.2188 343.4825 0001641  97.4151 262.7028 15.08872360 83042,6917.781,95.436,540.782,538.511,0.0
52574.0,STARLINK-3901,PAYLOAD,2023-11-09 07:30:12,15.08862497,0.0001936,53.219,341.1038,113.2112,246.9084,8.9697e-05,1.14e-05,0.0,0 STARLINK-3901,1 52574U 22051AQ  23313.31264927  .00001140  00000-0  89697-4 0  9998,2 52574  53.2190 341.1038 0001936 113.2112 246.9084 15.08862497 83122,6917.812,95.436,541.016,538.337,0.0
52574.0,STARLINK-3901,PAYLOAD,2023-11-09 18:37:54,15.08859181,0.0001601,53.2177,339.0232,91.5048,268.6128,6.6196e-05,7.66e-06,0.0,0 STARLINK-3901,1 52574U 22051AQ  23313.77632638  .00000766  00000-0  66196-4 0  9998,2 52574  53.2177 339.0232 0001601  91.5048 268.6128 15.08859181 83120,6917.822,95.436,540.794,538.579,0.0
52574.0,STARLINK-3901,PAYLOAD,2023-11-09 23:24:04,15.08839085,0.0001502,53.2165,338.1274,88.4547,271.6618,-0.00038018,-6.333e-05,0.0,0 STARLINK-3901,1 52574U 22051AQ  23313.97504991 -.00006333  00000-0 -38018-3 0  9999,2 52574  53.2165 338.1274 0001502  88.4547 271.6618 15.08839085 83222,6917.883,95.438,540.787,538.709,0.0
52574.0,STARLINK-3901,PAYLOAD,2023-11-10 08:56:22,15.0884343,0.0001449,53.2175,336.3484,94.8343,265.2814,-0.0002211,-3.805e-05,0.0,0 STARLINK-3901,1 52574U 22051AQ  23314.37248782 -.00003805  00000-0 -22110-3 0  9994,2 52574  53.2175 336.3484 0001449  94.8343 265.2814 15.08843430 83216,6917.87,95.437,540.737,538.733,0.0
52574.0,STARLINK-3901,PAYLOAD,2023-11-10 18:28:41,15.08845398,0.0001458,53.2169,334.5613,91.8635,268.2524,-1.0838e-05,-4.6e-06,0.0,0 STARLINK-3901,1 52574U 22051AQ  23314.76992777 -.00000460  00000-0 -10838-4 0  9996,2 52574  53.2169 334.5613 0001458  91.8635 268.2524 15.08845398 83344,6917.864,95.437,540.738,538.72,0.0
52574.0,STARLINK-3901,PAYLOAD,2023-11-11 10:22:33,15.08844848,0.0001586,53.2173,331.5877,80.7866,279.3306,5.6977e-05,6.19e-06,0.0,0 STARLINK-3901,1 52574U 22051AQ  23315.43233052  .00000619  00000-0  56977-4 0  9993,2 52574  53.2173 331.5877 0001586  80.7866 279.3306 15.08844848 83376,6917.866,95.437,540.828,538.633,0.0
52574.0,STARLINK-3901,PAYLOAD,2023-11-11 23:05:38,15.0883451,0.0001543,53.2163,329.208,81.7418,278.3749,0.00015555,2.188e-05,0.0,0 STARLINK-3901,1 52574U 22051AQ  23315.96225611  .00002188  00000-0  15555-3 0  9992,2 52574  53.2163 329.2080 0001543  81.7418 278.3749 15.08834510 83524,6917.897,95.438,540.83,538.695,0.0
52574.0,STARLINK-3901,PAYLOAD,2023-11-12 10:13:20,15.08844355,0.00015,53.2165,327.1234,89.1471,270.9693,0.00021293,3.103e-05,0.0,0 STARLINK-3901,1 52574U 22051AQ  23316.42593173  .00003103  00000-0  21293-3 0  9999,2 52574  53.2165 327.1234 0001500  89.1471 270.9693 15.08844355 83522,6917.867,95.437,540.77,538.694,0.0
52574.0,STARLINK-3901,PAYLOAD,2023-11-13 00:31:49,15.08839468,0.0001564,53.2162,324.4477,89.8649,270.2522,0.00016828,2.391e-05,0.0,0 STARLINK-3901,1 52574U 22051AQ  23317.02209496  .00002391  00000-0  16828-3 0  9994,2 52574  53.2162 324.4477 0001564  89.8649 270.2522 15.08839468 83682,6917.882,95.438,540.829,538.665,0.0
52574.0,STARLINK-3901,PAYLOAD,2023-11-13 10:04:07,15.0884833,0.0001637,53.2165,322.6643,91.9626,268.1554,0.00021467,3.131e-05,0.0,0 STARLINK-3901,1 52574U 22051AQ  23317.41953032  .00003131  00000-0  21467-3 0  9997,2 52574  53.2165 322.6643 0001637  91.9626 268.1554 15.08848330 83678,6917.855,95.437,540.852,538.587,0.0
